[Satellite]
VERSION=1.1
NAME=STARLINK-1149
NICKNAME=STARLINK-1149
TLE1=1 45079U 20006AM  20058.91667824  .00213438  00000-0  12603-2 0  9996
TLE2=2 45079  52.9950  87.8662 0001590  74.7363  24.8779 15.76997599  1789
STATUS=0
